start=new Date('2022-07-26T00:00:00.000Z').valueOf();
sats=[{"BSTAR":"-0.00000141070000","SITE":"AFETR","LAUNCH_DATE":"2021-04-07","CENTER_NAME":"EARTH","PERIOD":"95.593","COUNTRY_CODE":"US","EPOCH":"2022-07-25T19:06:57.216384","OBJECT_ID":"2021-027W","MEAN_MOTION":"15.06385941","REV_AT_EPOCH":"7295","GP_ID":"208862277","NORAD_CAT_ID":"48112","REF_FRAME":"TEME","ECCENTRICITY":"0.00015790","RCS_SIZE":"LARGE","INCLINATION":"53.0568","PERIAPSIS":"546.163","TLE_LINE1":"1 48112U 21027W   22206.79649556 -.00000302  00000-0 -14107-5 0  9996","OBJECT_NAME":"STARLINK-2449","ARG_OF_PERICENTER":"71.2369","TIME_SYSTEM":"UTC","MEAN_MOTION_DDOT":"0.0000000000000","FILE":"3521711","APOAPSIS":"548.350","ELEMENT_SET_NO":"999","CLASSIFICATION_TYPE":"U","EPHEMERIS_TYPE":"0","SEMIMAJOR_AXIS":"6925.392","DECAY_DATE":null,"MEAN_ANOMALY":"288.8791","MEAN_MOTION_DOT":"-0.00000302","MEAN_ELEMENT_THEORY":"SGP4","RA_OF_ASC_NODE":"355.4822","OBJECT_TYPE":"PAYLOAD","TLE_LINE2":"2 48112  53.0568 355.4822 0001579  71.2369 288.8791 15.06385941 72952"},{"PERIAPSIS":"546.383","INCLINATION":"53.0549","ECCENTRICITY":"0.00012630","RCS_SIZE":"LARGE","NORAD_CAT_ID":"48113","REF_FRAME":"TEME","GP_ID":"208861025","OBJECT_ID":"2021-027X","MEAN_MOTION":"15.06385576","REV_AT_EPOCH":"7299","EPOCH":"2022-07-25T15:59:09.159072","COUNTRY_CODE":"US","PERIOD":"95.593","CENTER_NAME":"EARTH","LAUNCH_DATE":"2021-04-07","SITE":"AFETR","BSTAR":"-0.00005328600000","TLE_LINE2":"2 48113  53.0549 350.9077 0001263  85.0861 275.0272 15.06385576 72994","OBJECT_TYPE":"PAYLOAD","MEAN_MOTION_DOT":"-0.00001075","MEAN_ELEMENT_THEORY":"SGP4","RA_OF_ASC_NODE":"350.9077","MEAN_ANOMALY":"275.0272","SEMIMAJOR_AXIS":"6925.393","EPHEMERIS_TYPE":"0","DECAY_DATE":null,"ELEMENT_SET_NO":"999","APOAPSIS":"548.132","CLASSIFICATION_TYPE":"U","FILE":"3521711","MEAN_MOTION_DDOT":"0.0000000000000","TIME_SYSTEM":"UTC","OBJECT_NAME":"STARLINK-2450","ARG_OF_PERICENTER":"85.0861","TLE_LINE1":"1 48113U 21027X   22206.66607823 -.00001075  00000-0 -53286-4 0  9992"},{"MEAN_MOTION_DOT":"0.00000128","MEAN_ELEMENT_THEORY":"SGP4","RA_OF_ASC_NODE":"345.7852","TLE_LINE2":"2 48114  53.0544 345.7852 0001241  94.4788 265.6343 15.06393240 73083","OBJECT_TYPE":"PAYLOAD","MEAN_ANOMALY":"265.6343","EPHEMERIS_TYPE":"0","SEMIMAJOR_AXIS":"6925.369","DECAY_DATE":null,"FILE":"3521711","ELEMENT_SET_NO":"999","APOAPSIS":"548.094","CLASSIFICATION_TYPE":"U","MEAN_MOTION_DDOT":"0.0000000000000","ARG_OF_PERICENTER":"94.4788","OBJECT_NAME":"STARLINK-2451","TIME_SYSTEM":"UTC","TLE_LINE1":"1 48114U 21027Y   22206.69323384  .00000128  00000-0  27475-4 0  9990","PERIAPSIS":"546.375","INCLINATION":"53.0544","NORAD_CAT_ID":"48114","REF_FRAME":"TEME","RCS_SIZE":"LARGE","ECCENTRICITY":"0.00012410","GP_ID":"208861275","EPOCH":"2022-07-25T16:38:15.403776","OBJECT_ID":"2021-027Y","MEAN_MOTION":"15.06393240","REV_AT_EPOCH":"7308","COUNTRY_CODE":"US","PERIOD":"95.593","LAUNCH_DATE":"2021-04-07","CENTER_NAME":"EARTH","BSTAR":"0.00002747500000","SITE":"AFETR"},{"PERIAPSIS":"546.204","INCLINATION":"53.0567","RCS_SIZE":"LARGE","ECCENTRICITY":"0.00015150","NORAD_CAT_ID":"48115","REF_FRAME":"TEME","GP_ID":"208862027","OBJECT_ID":"2021-027Z","MEAN_MOTION":"15.06386995","REV_AT_EPOCH":"7316","EPOCH":"2022-07-25T18:54:16.490304","COUNTRY_CODE":"US","PERIOD":"95.593","CENTER_NAME":"EARTH","LAUNCH_DATE":"2021-04-07","BSTAR":"0.00002957000000","SITE":"AFETR","OBJECT_TYPE":"PAYLOAD","TLE_LINE2":"2 48115  53.0567 340.3648 0001515  77.8170 282.2988 15.06386995 73165","MEAN_MOTION_DOT":"0.00000159","RA_OF_ASC_NODE":"340.3648","MEAN_ELEMENT_THEORY":"SGP4","MEAN_ANOMALY":"282.2988","EPHEMERIS_TYPE":"0","SEMIMAJOR_AXIS":"6925.388","DECAY_DATE":null,"APOAPSIS":"548.303","CLASSIFICATION_TYPE":"U","ELEMENT_SET_NO":"999","FILE":"3521711","MEAN_MOTION_DDOT":"0.0000000000000","TIME_SYSTEM":"UTC","OBJECT_NAME":"STARLINK-2452","ARG_OF_PERICENTER":"77.8170","TLE_LINE1":"1 48115U 21027Z   22206.78769086  .00000159  00000-0  29570-4 0  9996"},{"SEMIMAJOR_AXIS":"6925.333","EPHEMERIS_TYPE":"0","DECAY_DATE":null,"FILE":"3521711","APOAPSIS":"548.180","CLASSIFICATION_TYPE":"U","ELEMENT_SET_NO":"999","MEAN_MOTION_DOT":"0.00003798","RA_OF_ASC_NODE":"350.3131","MEAN_ELEMENT_THEORY":"SGP4","TLE_LINE2":"2 48116  53.0553 350.3131 0001419  77.1050 283.0097 15.06405238 73029","OBJECT_TYPE":"PAYLOAD","MEAN_ANOMALY":"283.0097","ARG_OF_PERICENTER":"77.1050","OBJECT_NAME":"STARLINK-2454","TIME_SYSTEM":"UTC","TLE_LINE1":"1 48116U 21027AA  22206.79507972  .00003798  00000-0  27367-3 0  9995","MEAN_MOTION_DDOT":"0.0000000000000","GP_ID":"208862777","EPOCH":"2022-07-25T19:04:54.887808","OBJECT_ID":"2021-027AA","REV_AT_EPOCH":"7302","MEAN_MOTION":"15.06405238","INCLINATION":"53.0553","PERIAPSIS":"546.215","NORAD_CAT_ID":"48116","REF_FRAME":"TEME","RCS_SIZE":"LARGE","ECCENTRICITY":"0.00014190","LAUNCH_DATE":"2021-04-07","CENTER_NAME":"EARTH","BSTAR":"0.00027367000000","SITE":"AFETR","COUNTRY_CODE":"US","PERIOD":"95.592"},{"ARG_OF_PERICENTER":"95.6451","OBJECT_NAME":"STARLINK-2455","TIME_SYSTEM":"UTC","TLE_LINE1":"1 48117U 21027AB  22206.83284206 -.00001639  00000-0 -91219-4 0  9995","MEAN_MOTION_DDOT":"0.0000000000000","DECAY_DATE":null,"EPHEMERIS_TYPE":"0","SEMIMAJOR_AXIS":"6925.404","FILE":"3521711","APOAPSIS":"548.270","ELEMENT_SET_NO":"999","CLASSIFICATION_TYPE":"U","MEAN_ELEMENT_THEORY":"SGP4","RA_OF_ASC_NODE":"330.1566","MEAN_MOTION_DOT":"-0.00001639","OBJECT_TYPE":"PAYLOAD","TLE_LINE2":"2 48117  53.0547 330.1566 0001445  95.6451 264.4703 15.06381905 73313","MEAN_ANOMALY":"264.4703","LAUNCH_DATE":"2021-04-07","CENTER_NAME":"EARTH","BSTAR":"-0.00009121900000","SITE":"AFETR","COUNTRY_CODE":"US","PERIOD":"95.593","GP_ID":"208861525","EPOCH":"2022-07-25T19:59:17.553984","REV_AT_EPOCH":"7331","MEAN_MOTION":"15.06381905","OBJECT_ID":"2021-027AB","PERIAPSIS":"546.268","INCLINATION":"53.0547","REF_FRAME":"TEME","NORAD_CAT_ID":"48117","ECCENTRICITY":"0.00014450","RCS_SIZE":"LARGE"},{"CENTER_NAME":"EARTH","LAUNCH_DATE":"2021-04-07","BSTAR":"0.00018902000000","SITE":"AFETR","COUNTRY_CODE":"US","PERIOD":"95.591","GP_ID":"208861775","OBJECT_ID":"2021-027AC","REV_AT_EPOCH":"7328","MEAN_MOTION":"15.06410871","EPOCH":"2022-07-25T15:29:56.375232","INCLINATION":"53.0567","PERIAPSIS":"546.049","ECCENTRICITY":"0.00016330","RCS_SIZE":"LARGE","NORAD_CAT_ID":"48118","REF_FRAME":"TEME","TIME_SYSTEM":"UTC","ARG_OF_PERICENTER":"73.6951","OBJECT_NAME":"STARLINK-2458","TLE_LINE1":"1 48118U 21027AC  22206.64579138  .00002536  00000-0  18902-3 0  9998","MEAN_MOTION_DDOT":"0.0000000000000","EPHEMERIS_TYPE":"0","SEMIMAJOR_AXIS":"6925.315","DECAY_DATE":null,"APOAPSIS":"548.311","ELEMENT_SET_NO":"999","CLASSIFICATION_TYPE":"U","FILE":"3521711","TLE_LINE2":"2 48118  53.0567 331.0039 0001633  73.6951 286.4218 15.06410871 73287","OBJECT_TYPE":"PAYLOAD","MEAN_MOTION_DOT":"0.00002536","MEAN_ELEMENT_THEORY":"SGP4","RA_OF_ASC_NODE":"331.0039","MEAN_ANOMALY":"286.4218"},{"BSTAR":"0.00004185100000","SITE":"AFETR","CENTER_NAME":"EARTH","LAUNCH_DATE":"2021-04-07","PERIOD":"95.592","COUNTRY_CODE":"US","OBJECT_ID":"2021-027AD","MEAN_MOTION":"15.06394579","REV_AT_EPOCH":"7329","EPOCH":"2022-07-25T18:34:21.328608","GP_ID":"208862527","ECCENTRICITY":"0.00015880","RCS_SIZE":"LARGE","NORAD_CAT_ID":"48119","REF_FRAME":"TEME","PERIAPSIS":"546.130","INCLINATION":"53.0570","TLE_LINE1":"1 48119U 21027AD  22206.77385797  .00000342  00000-0  41851-4 0  9992","TIME_SYSTEM":"UTC","ARG_OF_PERICENTER":"65.7479","OBJECT_NAME":"STARLINK-2459","MEAN_MOTION_DDOT":"0.0000000000000","ELEMENT_SET_NO":"999","APOAPSIS":"548.330","CLASSIFICATION_TYPE":"U","FILE":"3521711","SEMIMAJOR_AXIS":"6925.365","EPHEMERIS_TYPE":"0","DECAY_DATE":null,"MEAN_ANOMALY":"294.3676","TLE_LINE2":"2 48119  53.0570 330.4149 0001588  65.7479 294.3676 15.06394579 73296","OBJECT_TYPE":"PAYLOAD","MEAN_MOTION_DOT":"0.00000342","MEAN_ELEMENT_THEORY":"SGP4","RA_OF_ASC_NODE":"330.4149"},{"BSTAR":"0.00001002000000","SITE":"AFETR","CENTER_NAME":"EARTH","LAUNCH_DATE":"2021-04-07","PERIOD":"95.593","COUNTRY_CODE":"US","OBJECT_ID":"2021-027AE","REV_AT_EPOCH":"7303","MEAN_MOTION":"15.06392267","EPOCH":"2022-07-25T18:43:41.045088","GP_ID":"208862278","RCS_SIZE":"LARGE","ECCENTRICITY":"0.00015110","NORAD_CAT_ID":"48120","REF_FRAME":"TEME","PERIAPSIS":"546.191","INCLINATION":"53.0545","TLE_LINE1":"1 48120U 21027AE  22206.78033617 -.00000132  00000-0  10020-4 0  9998","TIME_SYSTEM":"UTC","ARG_OF_PERICENTER":"86.1630","OBJECT_NAME":"STARLINK-2460","MEAN_MOTION_DDOT":"0.0000000000000","APOAPSIS":"548.284","ELEMENT_SET_NO":"999","CLASSIFICATION_TYPE":"U","FILE":"3521711","SEMIMAJOR_AXIS":"6925.372","EPHEMERIS_TYPE":"0","DECAY_DATE":null,"MEAN_ANOMALY":"273.9532","OBJECT_TYPE":"PAYLOAD","TLE_LINE2":"2 48120  53.0545 350.3941 0001511  86.1630 273.9532 15.06392267 73031","MEAN_MOTION_DOT":"-0.00000132","MEAN_ELEMENT_THEORY":"SGP4","RA_OF_ASC_NODE":"350.3941"},{"MEAN_MOTION_DDOT":"0.0000000000000","TIME_SYSTEM":"UTC","OBJECT_NAME":"STARLINK-2462","ARG_OF_PERICENTER":"95.7386","TLE_LINE1":"1 48121U 21027AF  22206.81811673  .00000093  00000-0  25135-4 0  9997","OBJECT_TYPE":"PAYLOAD","TLE_LINE2":"2 48121  53.0566 340.2232 0001391  95.7386 264.3762 15.06398561 73162","MEAN_ELEMENT_THEORY":"SGP4","RA_OF_ASC_NODE":"340.2232","MEAN_MOTION_DOT":"0.00000093","MEAN_ANOMALY":"264.3762","DECAY_DATE":null,"SEMIMAJOR_AXIS":"6925.353","EPHEMERIS_TYPE":"0","CLASSIFICATION_TYPE":"U","APOAPSIS":"548.181","ELEMENT_SET_NO":"999","FILE":"3521711","COUNTRY_CODE":"US","PERIOD":"95.592","CENTER_NAME":"EARTH","LAUNCH_DATE":"2021-04-07","SITE":"AFETR","BSTAR":"0.00002513500000","INCLINATION":"53.0566","PERIAPSIS":"546.255","RCS_SIZE":"LARGE","ECCENTRICITY":"0.00013910","REF_FRAME":"TEME","NORAD_CAT_ID":"48121","GP_ID":"208861026","REV_AT_EPOCH":"7316","MEAN_MOTION":"15.06398561","OBJECT_ID":"2021-027AF","EPOCH":"2022-07-25T19:38:05.285472"}];
